NORAD_CAT_ID,OBJECT_NAME,OBJECT_TYPE,EPOCH,MEAN_MOTION,ECCENTRICITY,INCLINATION,RA_OF_ASC_NODE,ARG_OF_PERICENTER,MEAN_ANOMALY,BSTAR,MEAN_MOTION_DOT,MEAN_MOTION_DDOT,TLE_LINE0,TLE_LINE1,TLE_LINE2,SEMIMAJOR_AXIS,PERIOD,APOGEE,PERIGEE,DECAYED
53412.0,STARLINK-4496,PAYLOAD,2024-04-16 19:42:16,15.0885446,0.0001041,53.2187,340.0413,106.2437,253.867,0.00010491,1.383e-05,0.0,0 STARLINK-4496,1 53412U 22097AA  24107.82102603  .00001383  00000-0  10491-3 0  9994,2 53412  53.2187 340.0413 0001041 106.2437 253.8670 15.08854460 93719,6917.836,95.437,540.421,538.981,0.0
53412.0,STARLINK-4496,PAYLOAD,2024-04-16 21:17:39,15.08859145,0.0001403,53.2185,339.741,120.0424,240.0707,0.00010075,1.317e-05,0.0,0 STARLINK-4496,1 53412U 22097AA  24107.88726333  .00001317  00000-0  10075-3 0  9997,2 53412  53.2185 339.7410 0001403 120.0424 240.0707 15.08859145 94211,6917.822,95.436,540.657,538.716,0.0
53412.0,STARLINK-4496,PAYLOAD,2024-04-17 00:28:25,15.08868962,0.0001039,53.2177,339.1422,107.0092,253.1014,0.00051341,7.899e-05,0.0,0 STARLINK-4496,1 53412U 22097AA  24108.01973834  .00007899  00000-0  51341-3 0  9995,2 53412  53.2177 339.1422 0001039 107.0092 253.1014 15.08868962 93740,6917.792,95.436,540.376,538.938,0.0
53412.0,STARLINK-4496,PAYLOAD,2024-04-17 19:33:05,15.08820103,0.0001081,53.2179,335.5783,84.019,276.0925,-0.00017572,-3.082e-05,0.0,0 STARLINK-4496,1 53412U 22097AA  24108.81464586 -.00003082  00000-0 -17572-3 0  9992,2 53412  53.2179 335.5783 0001081  84.0190 276.0925 15.08820103 93865,6917.941,95.439,540.554,539.058,0.0
53412.0,STARLINK-4496,PAYLOAD,2024-04-17 21:08:28,15.08823622,0.0001391,53.2179,335.2769,72.1933,287.9211,-0.00013195,-2.386e-05,0.0,0 STARLINK-4496,1 53412U 22097AA  24108.88088611 -.00002386  00000-0 -13195-3 0  9993,2 53412  53.2179 335.2769 0001391  72.1933 287.9211 15.08823622 94367,6917.93,95.439,540.758,538.833,0.0
53412.0,STARLINK-4496,PAYLOAD,2024-04-18 00:19:14,15.08825055,0.0001395,53.218,334.6826,83.4276,276.6875,-6.203e-05,-1.275e-05,0.0,0 STARLINK-4496,1 53412U 22097AA  24109.01336602 -.00001275  00000-0 -62030-4 0  9994,2 53412  53.2180 334.6826 0001395  83.4276 276.6875 15.08825055 94380,6917.926,95.438,540.756,538.826,0.0
53412.0,STARLINK-4496,PAYLOAD,2024-04-18 20:59:15,15.08842417,0.0001522,53.2164,330.8227,67.9838,292.1316,0.0005049,7.757e-05,0.0,0 STARLINK-4496,1 53412U 22097AA  24109.87448199  .00007757  00000-0  50490-3 0  9998,2 53412  53.2164 330.8227 0001522  67.9838 292.1316 15.08842417 94023,6917.873,95.437,540.791,538.685,0.0
53412.0,STARLINK-4496,PAYLOAD,2024-04-19 00:10:01,15.08850693,0.0001707,53.2184,330.2155,109.1975,250.9202,0.00066696,0.00010346,0.0,0 STARLINK-4496,1 53412U 22097AA  24110.00695733  .00010346  00000-0  66696-3 0  9996,2 53412  53.2184 330.2155 0001707 109.1975 250.9202 15.08850693 94048,6917.848,95.437,540.894,538.532,0.0
53412.0,STARLINK-4496,PAYLOAD,2024-04-19 14:28:29,15.08849994,0.0001579,53.2174,327.5517,99.3954,260.7216,0.00040044,6.092e-05,0.0,0 STARLINK-4496,1 53412U 22097AA  24110.60312279  .00006092  00000-0  40044-3 0  9995,2 53412  53.2174 327.5517 0001579  99.3954 260.7216 15.08849994 94622,6917.85,95.437,540.807,538.623,0.0
53412.0,STARLINK-4496,PAYLOAD,2024-04-19 20:50:02,15.08870456,0.0001544,53.2173,326.3608,69.9548,290.1611,0.00093765,0.00014679,0.0,0 STARLINK-4496,1 53412U 22097AA  24110.86807904  .00014679  00000-0  93765-3 0  9995,2 53412  53.2173 326.3608 0001544  69.9548 290.1611 15.08870456 94176,6917.787,95.436,540.72,538.584,0.0
53412.0,STARLINK-4496,PAYLOAD,2024-04-20 20:40:49,15.08841358,0.0001348,53.2177,321.8979,95.7785,264.3361,0.0006818,0.0001058,0.0,0 STARLINK-4496,1 53412U 22097AA  24111.86168441  .00010580  00000-0  68180-3 0  9992,2 53412  53.2177 321.8979 0001348  95.7785 264.3361 15.08841358 94324,6917.876,95.437,540.674,538.809,0.0
53412.0,STARLINK-4496,PAYLOAD,2024-04-21 14:10:04,15.08817256,0.0001484,53.2184,318.6217,89.4768,270.6394,0.00051951,7.985e-05,0.0,0 STARLINK-4496,1 53412U 22097AA  24112.59033522  .00007985  00000-0  51951-3 0  9997,2 53412  53.2184 318.6217 0001484  89.4768 270.6394 15.08817256 94925,6917.95,95.439,540.842,538.788,0.0
53412.0,STARLINK-4496,PAYLOAD,2024-04-21 20:31:36,15.08884246,0.0001302,53.2195,317.4421,95.6782,264.4359,0.0023897,0.00037995,0.0,0 STARLINK-4496,1 53412U 22097AA  24112.85528583  .00037995  00000-0  23897-2 0  9993,2 53412  53.2195 317.4421 0001302  95.6782 264.4359 15.08884246 94964,6917.745,95.435,540.511,538.709,0.0
53412.0,STARLINK-4496,PAYLOAD,2024-04-22 20:22:22,15.08861808,0.000124,53.2181,312.9772,115.2669,244.8452,0.00044906,6.87e-05,0.0,0 STARLINK-4496,1 53412U 22097AA  24113.84887227  .00006870  00000-0  44906-3 0  9999,2 53412  53.2181 312.9772 0001240 115.2669 244.8452 15.08861808 94620,6917.814,95.436,540.537,538.821,0.0
53412.0,STARLINK-4496,PAYLOAD,2024-04-23 18:37:47,15.08822518,0.0001347,53.2173,308.8119,145.8396,214.2683,-7.156e-05,-1.426e-05,0.0,0 STARLINK-4496,1 53412U 22097AA  24114.77624380 -.00001426  00000-0 -71560-4 0  9992,2 53412  53.2173 308.8119 0001347 145.8396 214.2683 15.08822518 94761,6917.934,95.439,540.731,538.867,0.0
53412.0,STARLINK-4496,PAYLOAD,2024-04-24 20:03:55,15.08825117,0.0001648,53.217,304.0592,165.046,195.0582,-0.0010434,-0.00016849,0.0,0 STARLINK-4496,1 53412U 22097AA  24115.83605944 -.00016849  00000-0 -10434-2 0  9991,2 53412  53.2170 304.0592 0001648 165.0460 195.0582 15.08825117 94921,6917.926,95.438,540.931,538.651,0.0
53412.0,STARLINK-4496,PAYLOAD,2024-04-24 21:39:18,15.08814606,0.0001072,53.2168,303.7594,130.4122,229.6964,-0.00083189,-0.00013493,0.0,0 STARLINK-4496,1 53412U 22097AA  24115.90230231 -.00013493  00000-0 -83189-3 0  9992,2 53412  53.2168 303.7594 0001072 130.4122 229.6964 15.08814606 95423,6917.958,95.439,540.565,539.081,0.0
53412.0,STARLINK-4496,PAYLOAD,2024-04-25 11:57:48,15.08805439,0.0001296,53.2172,301.0815,145.9891,214.1185,-0.00047183,-7.782e-05,0.0,0 STARLINK-4496,1 53412U 22097AA  24116.49847759 -.00007782  00000-0 -47183-3 0  9994,2 53412  53.2172 301.0815 0001296 145.9891 214.1185 15.08805439 95515,6917.986,95.44,540.748,538.954,0.0
53412.0,STARLINK-4496,PAYLOAD,2024-04-25 19:54:44,15.08850489,0.0001147,53.2171,299.5978,149.5333,210.5726,0.00030138,4.513e-05,0.0,0 STARLINK-4496,1 53412U 22097AA  24116.82967959  .00004513  00000-0  30138-3 0  9995,2 53412  53.2171 299.5978 0001147 149.5333 210.5726 15.08850489 95078,6917.848,95.437,540.507,538.92,0.0
53412.0,STARLINK-4496,PAYLOAD,2024-04-26 11:48:37,15.08823781,0.0001267,53.2174,296.625,80.7519,279.3617,0.00056438,8.702e-05,0.0,0 STARLINK-4496,1 53412U 22097AA  24117.49209626  .00008702  00000-0  56438-3 0  9994,2 53412  53.2174 296.6250 0001267  80.7519 279.3617 15.08823781 95175,6917.93,95.439,540.671,538.918,0.0
53412.0,STARLINK-4496,PAYLOAD,2024-04-26 18:10:09,15.08833514,0.0001253,53.2173,295.4358,77.3578,282.7555,0.00056805,8.763e-05,0.0,0 STARLINK-4496,1 53412U 22097AA  24117.75705484  .00008763  00000-0  56805-3 0  9991,2 53412  53.2173 295.4358 0001253  77.3578 282.7555 15.08833514 95705,6917.9,95.438,540.632,538.898,0.0
53412.0,STARLINK-4496,PAYLOAD,2024-04-27 05:17:51,15.08838306,0.0001253,53.2175,293.3557,72.3783,287.7346,0.00045104,6.897e-05,0.0,0 STARLINK-4496,1 53412U 22097AA  24118.22073464  .00006897  00000-0  45104-3 0  9996,2 53412  53.2175 293.3557 0001253  72.3783 287.7346 15.08838306 95772,6917.886,95.438,540.617,538.884,0.0
53412.0,STARLINK-4496,PAYLOAD,2024-04-27 21:11:42,15.08845689,0.0001404,53.2186,290.3762,107.7848,252.3298,0.00031353,4.706e-05,0.0,0 STARLINK-4496,1 53412U 22097AA  24118.88313134  .00004706  00000-0  31353-3 0  9997,2 53412  53.2186 290.3762 0001404 107.7848 252.3298 15.08845689 95385,6917.863,95.437,540.699,538.757,0.0
53412.0,STARLINK-4496,PAYLOAD,2024-04-28 14:40:57,15.08831824,0.0001185,53.2182,287.106,109.0556,251.0565,-6.8262e-05,-1.374e-05,0.0,0 STARLINK-4496,1 53412U 22097AA  24119.61177752 -.00001374  00000-0 -68262-4 0  9993,2 53412  53.2182 287.1060 0001185 109.0556 251.0565 15.08831824 95988,6917.905,95.438,540.59,538.951,0.0
53412.0,STARLINK-4496,PAYLOAD,2024-04-28 21:02:30,15.08837317,0.0001251,53.2181,285.9162,100.4988,259.6145,0.00013718,1.896e-05,0.0,0 STARLINK-4496,1 53412U 22097AA  24119.87673874  .00001896  00000-0  13718-3 0  9999,2 53412  53.2181 285.9162 0001251 100.4988 259.6145 15.08837317 95536,6917.889,95.438,540.619,538.888,0.0
53412.0,STARLINK-4496,PAYLOAD,2024-04-29 14:31:44,15.08843533,0.0001275,53.2183,282.6457,102.9796,257.1338,0.00030581,4.583e-05,0.0,0 STARLINK-4496,1 53412U 22097AA  24120.60537951  .00004583  00000-0  30581-3 0  9990,2 53412  53.2183 282.6457 0001275 102.9796 257.1338 15.08843533 96130,6917.87,95.437,540.617,538.853,0.0
53412.0,STARLINK-4496,PAYLOAD,2024-04-29 17:42:31,15.08848063,0.0001252,53.2182,282.0553,105.0424,255.0707,0.00052687,8.109e-05,0.0,0 STARLINK-4496,1 53412U 22097AA  24120.73785927  .00008109  00000-0  52687-3 0  9991,2 53412  53.2182 282.0553 0001252 105.0424 255.0707 15.08848063 96159,6917.856,95.437,540.587,538.855,0.0
53412.0,STARLINK-4496,PAYLOAD,2024-04-30 03:14:49,15.08847443,0.0001132,53.2171,280.2682,93.2741,266.8381,0.00054295,8.365e-05,0.0,0 STARLINK-4496,1 53412U 22097AA  24121.13529799  .00008365  00000-0  54295-3 0  9990,2 53412  53.2171 280.2682 0001132  93.2741 266.8381 15.08847443 95728,6917.858,95.437,540.506,538.94,0.0
53412.0,STARLINK-4496,PAYLOAD,2024-04-30 14:22:31,15.08844856,0.0001382,53.2184,278.1915,108.0976,252.0167,0.00013232,1.819e-05,0.0,0 STARLINK-4496,1 53412U 22097AA  24121.59897779  .00001819  00000-0  13232-3 0  9999,2 53412  53.2184 278.1915 0001382 108.0976 252.0167 15.08844856 96285,6917.866,95.437,540.687,538.774,0.0
53412.0,STARLINK-4496,PAYLOAD,2024-04-30 17:33:17,15.08844656,0.0001316,53.2182,277.5957,104.2705,255.8433,0.00016246,2.299e-05,0.0,0 STARLINK-4496,1 53412U 22097AA  24121.73145824  .00002299  00000-0  16246-3 0  9993,2 53412  53.2182 277.5957 0001316 104.2705 255.8433 15.08844656 95810,6917.866,95.437,540.642,538.821,0.0
